STARLINK-6283           
1 56406U 23061AJ  23139.06287948  .00005151  00000+0  42693-4 0  9994
2 56406  43.0000  22.4919 0001898 269.5075  90.5575 15.71361941  2626
STARLINK-6282           
1 56407U 23061AK  23139.12686018  .00001179  00000+0  12432-4 0  9997
2 56407  42.9995  22.1106 0002176 255.2275 104.8351 15.71368125  2630
STARLINK-6289           
1 56408U 23061AL  23139.06277477  .00002330  00000+0  21208-4 0  9997
2 56408  43.0006  22.4901 0001861 264.1514  95.9141 15.71358227  2625
STARLINK-6241           
1 56409U 23061AM  23139.06308778  .00002891  00000+0  25489-4 0  9994
2 56409  43.0004  22.4920 0002200 256.1899 103.8724 15.71357881  2621
STARLINK-6281           
1 56410U 23061AN  23139.06256440  .00013080  00000+0  10299-3 0  9998
2 56410  42.9998  22.4896 0001882 268.6747  91.3905 15.71364837  2621
STARLINK-6279           
1 56411U 23061AP  23139.06298497  .00000951  00000+0  10701-4 0  9999
2 56411  43.0000  22.4919 0001863 262.9457  97.1199 15.71356407  2621
STARLINK-6278           
1 56412U 23061AQ  23139.06235386  .00002192  00000+0  20160-4 0  9997
2 56412  43.0000  22.4866 0001706 261.3502  98.7173 15.71356758  2621
STARLINK-6258           
1 56413U 23061AR  23139.06266942  .00003967  00000+0  33679-4 0  9990
2 56413  43.0005  22.4889 0001808 260.5861  99.4802 15.71361043  2624
STARLINK-5136           
1 56414U 23061AS  23139.06214686  .00002373  00000+0  21534-4 0  9996
2 56414  43.0004  22.4843 0002242 253.9747 106.0874 15.71360396  2620
STARLINK-6268           
1 56415U 23061AT  23139.06245802  .00006131  00000+0  50166-4 0  9990
2 56415  42.9997  22.4880 0002076 261.6625  98.4007 15.71355845  2622
STARLINK-6260           
1 56416U 23061AU  23139.06193311  .00002388  00000+0  21652-4 0  9996
2 56416  43.0011  22.4835 0001881 271.9019  88.1633 15.71359109  2624
STARLINK-6261           
1 56417U 23061AV  23139.12581163  .00000482  00000+0  71239-5 0  9990
2 56417  42.9995  22.1019 0002066 251.4217 108.6427 15.71354266  2633
STARLINK-5356           
1 56418U 23061AW  23139.06172399  .00005530  00000+0  45578-4 0  9996
2 56418  43.0003  22.4824 0001799 269.1678  90.8984 15.71361992  2625
STARLINK-5350           
1 56419U 23061AX  23139.06203715  .00003404  00000+0  29387-4 0  9992
2 56419  42.9996  22.4857 0002055 267.3869  92.6764 15.71362411  2622
STARLINK-6272           
1 56420U 23061AY  23139.06161696 -.00003659  00000+0 -24463-4 0  9999
2 56420  43.0008  22.4800 0001730 259.8103 100.2570 15.71361375  2623
STARLINK-6270           
1 56421U 23061AZ  23139.12539056 -.00001034  00000+0 -44376-5 0  9997
2 56421  42.9998  22.0986 0001982 255.9865 104.0782 15.71351696  2635
STARLINK-6236           
1 56422U 23061BA  23139.06140619  .00002465  00000+0  22233-4 0  9998
2 56422  43.0004  22.4791 0002102 259.0654 100.9977 15.71360930  2621
STARLINK-6239           
1 56423U 23061BB  23139.12507417 -.00000324  00000+0  98113-6 0  9994
2 56423  43.0004  22.0964 0001832 265.7887  94.2771 15.71356982  2631
STARLINK-6242           
1 56424U 23061BC  23139.06119638  .00002335  00000+0  21248-4 0  9998
2 56424  43.0007  22.4773 0002003 253.2927 106.7721 15.71360271  2624
STARLINK-6224           
1 56425U 23061BD  23139.06130308  .00000803  00000+0  95678-5 0  9993
2 56425  43.0002  22.4783 0001896 269.1675  90.8976 15.71357496  2626
STARLINK-5352           
1 56426U 23061BE  23139.06098993  .00004709  00000+0  39330-4 0  9998
2 56426  43.0002  22.4763 0001604 263.0393  97.0293 15.71359526  2629
STARLINK-5724           
1 56427U 23061BF  23139.06109038  .00005302  00000+0  43852-4 0  9996
2 56427  42.9995  22.4767 0002021 257.9848 102.0793 15.71357040  2625
STARLINK-6238           
1 56428U 23061BG  23139.06088321  .00002198  00000+0  20205-4 0  9995
2 56428  43.0006  22.4761 0001699 275.3583  84.7091 15.71356530  2625
STARLINK-6264           
1 56429U 23061BH  23139.06077672  .00000045  00000+0  37964-5 0  9993
2 56429  43.0008  22.4730 0002149 261.5981  98.4644 15.71353121  2623
FALCON 9 DEB            
1 56430U 23061BJ  23139.13904235  .00292824  40207-4  84952-3 0  9990
2 56430  43.0179  20.4301 0020370  90.9029 269.4181 15.91803306  2363
FALCON 9 DEB            
1 56431U 23061BK  23139.13422900  .00301541  42522-4  84210-3 0  9991
2 56431  43.0146  20.3868 0017206  97.5298 262.7533 15.92631301  2362
FALCON 9 DEB            
1 56432U 23061BL  23139.12382558  .00314027  46097-4  82091-3 0  9994
2 56432  43.0092  20.2933 0014889  81.8338 278.4227 15.93935679  2360
FALCON 9 DEB            
1 56433U 23061BM  23139.12312925  .00285641  39339-4  76042-3 0  9995
2 56433  43.0096  20.2844 0014411  84.4221 275.8298 15.93622427  2360
TROPICS-05              
1 56442U 23062A   23139.26061987  .00006596  00000+0  43163-3 0  9996
2 56442  32.7367  78.7796 0010870 327.1164  32.8828 15.06648946  1680
2023-062B               
1 56443U 23062B   23139.25437198  .00008201  00000+0  52430-3 0  9999
2 56443  32.7343  78.7326 0013307 326.8256  33.1579 15.07506274  1685
TROPICS-06              
1 56444U 23062C   23139.12012226  .00006649  00000+0  42177-3 0  9998
2 56444  32.7364  79.5470 0015492 319.6986  40.2535 15.07734705  1633
2023-062D               
1 56445U 23062D   23138.93835662  .00004859  00000+0  33160-3 0  9997
2 56445  35.4828  83.9908 0014092 316.7683  43.1928 15.05666177  1612
TIANZHOU-6              
1 56446U 23063A   23138.46179399  .00024819  00000+0  29628-3 0  9997
2 56446  41.4744 336.5631 0009800 191.8803 168.1806 15.60405300117198
CZ-7 R/B                
1 56447U 23063B   23138.97283524  .02059481  78155-5  44548-3 0  9995
2 56447  41.4815 329.3899 0049459 248.7141 241.1395 16.25803366  1345
STARLINK A              
1 56448U 23064A   23139.25001157 -.00925547  00000+0 -42810-2 0  9991
2 56448  70.0001 221.6057 0003967 204.9478 265.4227 15.85399744  1711
STARLINK B              
1 56449U 23064B   23139.25001157 -.00925712  00000+0 -42915-2 0  9992
2 56449  70.0005 221.6065 0003705 209.9768 259.2297 15.85357037  1719
STARLINK C              
1 56450U 23064C   23138.91667824 -.00918731  00000+0 -41122-2 0  9997
2 56450  70.0000 222.5645 0004772 191.9211 176.4846 15.86045994  1658
STARLINK D              
1 56451U 23064D   23139.25001157 -.00925476  00000+0 -42885-2 0  9998
2 56451  69.9997 221.6059 0003569 215.2013 254.3008 15.85367477  1718
STARLINK E              
1 56452U 23064E   23139.25001157 -.00925689  00000+0 -42874-2 0  9993
2 56452  70.0001 221.6062 0003545 214.2959 255.4957 15.85378357  1718
STARLINK F              
1 56453U 23064F   23139.25001157 -.00927861  00000+0 -42951-2 0  9994
2 56453  69.9993 221.6051 0003891 216.9643 253.1208 15.85389984  1719
STARLINK G              
1 56454U 23064G   23139.25001157 -.00925334  00000+0 -42694-2 0  9992
2 56454  70.0004 221.6035 0003815 207.8379 264.0006 15.85452575  1713
STARLINK H              
1 56455U 23064H   23139.25001157 -.00924844  00000+0 -42652-2 0  9992
2 56455  69.9995 221.6026 0003628 212.8102 259.3135 15.85463344  1718
STARLINK J              
1 56456U 23064J   23139.25001157 -.00922505  00000+0 -42613-2 0  9992
2 56456  70.0003 221.6046 0003978 203.3393 267.6235 15.85419613  1712
STARLINK K              
1 56457U 23064K   23139.25001157 -.00936965  00000+0 -43315-2 0  9998
2 56457  69.9990 221.6031 0003304 228.6170 242.9331 15.85446955  1717
STARLINK L              
1 56458U 23064L   23139.25001157 -.00923068  00000+0 -42632-2 0  9990
2 56458  70.0000 221.6041 0003532 215.7084 255.5467 15.85430529  1718
STARLINK M              
1 56459U 23064M   23139.25001157 -.00924570  00000+0 -42555-2 0  9994
2 56459  69.9999 221.6012 0003504 216.0186 257.2870 15.85505190  1711
STARLINK N              
1 56460U 23064N   23139.25001157 -.00924797  00000+0 -42615-2 0  9994
2 56460  70.0000 221.6026 0004059 201.8918 270.5186 15.85473997  1712
STARLINK P              
1 56461U 23064P   23139.25001157 -.00924023  00000+0 -42471-2 0  9997
2 56461  69.9998 221.6003 0003932 204.9005 268.9836 15.85526438  1713
STARLINK Q              
1 56462U 23064Q   23139.58334491 -.01020947  32403-3 -25009-2 0  9991
2 56462  69.9993 220.4844 0030118 155.4047 193.7382 15.95074208  1761
STARLINK R              
1 56463U 23064R   23139.25001157 -.00924236  00000+0 -42462-2 0  9995
2 56463  69.9999 221.5999 0003864 206.4305 267.7431 15.85536995  1710
STARLINK S              
1 56464U 23064S   23139.25001157 -.00924309  00000+0 -42543-2 0  9997
2 56464  69.9995 221.6016 0004234 198.5569 274.4581 15.85494216  1713
STARLINK T              
1 56465U 23064T   23139.58334491 -.00804650  20991-3 -18950-2 0  9990
2 56465  69.9989 220.4209 0032064 155.1982 248.0520 15.95646066  1766
STARLINK U              
1 56466U 23064U   23139.58334491 -.00896322  00000+0 -42477-2 0  9994
2 56466  69.9996 220.6425 0003061 234.5566 340.6678 15.84840607  1760
STARLINK V              
1 56467U 23064V   23139.25001157 -.00921360  00000+0 -42183-2 0  9994
2 56467  70.0000 221.5976 0004016 203.6307 272.2840 15.85599557  1714
STARLINK W              
1 56468U 23064W   23139.25001157 -.00923642  00000+0 -42397-2 0  9997
2 56468  69.9994 221.5993 0003586 213.5454 261.2166 15.85557749  1713
STARLINK X              
1 56469U 23064X   23139.25001157 -.00926631  00000+0 -42505-2 0  9990
2 56469  69.9997 221.5991 0004046 200.9747 274.0736 15.85572474  1719
STARLINK Y              
1 56470U 23064Y   23139.25001157 -.00926607  00000+0 -42430-2 0  9992
2 56470  69.9997 221.5988 0005002 189.3522 286.2717 15.85593614  1714
STARLINK Z              
1 56471U 23064Z   23139.25001157 -.00926250  00000+0 -42354-2 0  9992
2 56471  69.9999 221.5973 0004775 191.9858 284.5082 15.85625310  1713
STARLINK AA             
1 56472U 23064AA  23139.25001157 -.00926111  00000+0 -42365-2 0  9991
2 56472  69.9998 221.5980 0004912 190.5309 285.6785 15.85614382  1719
